start=new Date('2023-05-25T00:00:00.000Z').valueOf();
sats=[{"ECCENTRICITY":"0.00011780","TLE_LINE2":"2 47899  53.0471 142.3000 0001178  95.2635 264.8519 15.76738144122822","GP_ID":"232448584","CLASSIFICATION_TYPE":"U","PERIAPSIS":"338.900","ELEMENT_SET_NO":"999","SEMIMAJOR_AXIS":"6717.827","APOAPSIS":"340.483","TIME_SYSTEM":"UTC","DECAY_DATE":null,"MEAN_ANOMALY":"264.8519","OBJECT_TYPE":"PAYLOAD","RA_OF_ASC_NODE":"142.3000","EPHEMERIS_TYPE":"0","MEAN_MOTION":"15.76738144","OBJECT_NAME":"STARLINK-2359","REF_FRAME":"TEME","FILE":"3916549","NORAD_CAT_ID":"47899","ARG_OF_PERICENTER":"95.2635","CENTER_NAME":"EARTH","OBJECT_ID":"2021-021AR","MEAN_MOTION_DDOT":"0.0000000000000","RCS_SIZE":"LARGE","PERIOD":"91.328","INCLINATION":"53.0471","LAUNCH_DATE":"2021-03-14","MEAN_MOTION_DOT":"0.00009726","REV_AT_EPOCH":"12282","TLE_LINE1":"1 47899U 21021AR  23144.26622369  .00009726  00000-0  63323-4 0  9998","EPOCH":"2023-05-24T06:23:21.726816","BSTAR":"0.00006332300000","MEAN_ELEMENT_THEORY":"SGP4","COUNTRY_CODE":"US","SITE":"AFETR"},{"EPHEMERIS_TYPE":"0","RA_OF_ASC_NODE":"171.9900","MEAN_ANOMALY":"260.6290","OBJECT_TYPE":"PAYLOAD","DECAY_DATE":null,"TIME_SYSTEM":"UTC","APOAPSIS":"547.879","SEMIMAJOR_AXIS":"6925.377","ELEMENT_SET_NO":"999","PERIAPSIS":"546.605","CLASSIFICATION_TYPE":"U","GP_ID":"232448835","TLE_LINE2":"2 47900  53.0534 171.9900 0000920  99.4803 260.6290 15.06390692122419","ECCENTRICITY":"0.00009200","SITE":"AFETR","COUNTRY_CODE":"US","MEAN_ELEMENT_THEORY":"SGP4","BSTAR":"0.00015987000000","EPOCH":"2023-05-24T08:59:37.397760","TLE_LINE1":"1 47900U 21021AS  23144.37473840  .00002100  00000-0  15987-3 0  9992","REV_AT_EPOCH":"12241","INCLINATION":"53.0534","LAUNCH_DATE":"2021-03-14","MEAN_MOTION_DOT":"0.00002100","PERIOD":"95.593","RCS_SIZE":"LARGE","MEAN_MOTION_DDOT":"0.0000000000000","OBJECT_ID":"2021-021AS","CENTER_NAME":"EARTH","NORAD_CAT_ID":"47900","ARG_OF_PERICENTER":"99.4803","FILE":"3916549","OBJECT_NAME":"STARLINK-2360","REF_FRAME":"TEME","MEAN_MOTION":"15.06390692"},{"RCS_SIZE":"LARGE","OBJECT_ID":"2021-021AT","MEAN_MOTION_DDOT":"0.0000000000000","CENTER_NAME":"EARTH","NORAD_CAT_ID":"47901","ARG_OF_PERICENTER":"96.7109","FILE":"3916549","REF_FRAME":"TEME","OBJECT_NAME":"STARLINK-2361","MEAN_MOTION":"15.06390831","SITE":"AFETR","COUNTRY_CODE":"US","MEAN_ELEMENT_THEORY":"SGP4","BSTAR":"0.00017453000000","EPOCH":"2023-05-24T08:09:15.234624","TLE_LINE1":"1 47901U 21021AT  23144.33975966  .00002319  00000-0  17453-3 0  9997","REV_AT_EPOCH":"12253","INCLINATION":"53.0530","LAUNCH_DATE":"2021-03-14","MEAN_MOTION_DOT":"0.00002319","PERIOD":"95.593","APOAPSIS":"548.071","SEMIMAJOR_AXIS":"6925.377","ELEMENT_SET_NO":"999","PERIAPSIS":"546.413","CLASSIFICATION_TYPE":"U","TLE_LINE2":"2 47901  53.0530 162.2321 0001197  96.7109 263.4017 15.06390831122538","GP_ID":"232448091","ECCENTRICITY":"0.00011970","EPHEMERIS_TYPE":"0","RA_OF_ASC_NODE":"162.2321","OBJECT_TYPE":"PAYLOAD","MEAN_ANOMALY":"263.4017","TIME_SYSTEM":"UTC","DECAY_DATE":null},{"CENTER_NAME":"EARTH","OBJECT_ID":"2021-021AU","MEAN_MOTION_DDOT":"0.0000000000000","RCS_SIZE":"LARGE","MEAN_MOTION":"15.06395409","OBJECT_NAME":"STARLINK-2362","REF_FRAME":"TEME","FILE":"3916549","ARG_OF_PERICENTER":"91.0294","NORAD_CAT_ID":"47902","COUNTRY_CODE":"US","SITE":"AFETR","PERIOD":"95.592","LAUNCH_DATE":"2021-03-14","INCLINATION":"53.0523","MEAN_MOTION_DOT":"0.00001395","REV_AT_EPOCH":"12236","TLE_LINE1":"1 47902U 21021AU  23144.32316499  .00001395  00000-0  11251-3 0  9990","EPOCH":"2023-05-24T07:45:21.455136","BSTAR":"0.00011251000000","MEAN_ELEMENT_THEORY":"SGP4","SEMIMAJOR_AXIS":"6925.363","APOAPSIS":"548.118","ECCENTRICITY":"0.00012860","TLE_LINE2":"2 47902  53.0523 182.2184 0001286  91.0294 269.0842 15.06395409122367","GP_ID":"232448339","CLASSIFICATION_TYPE":"U","PERIAPSIS":"546.337","ELEMENT_SET_NO":"999","RA_OF_ASC_NODE":"182.2184","EPHEMERIS_TYPE":"0","DECAY_DATE":null,"TIME_SYSTEM":"UTC","MEAN_ANOMALY":"269.0842","OBJECT_TYPE":"PAYLOAD"},{"FILE":"3916549","ARG_OF_PERICENTER":"72.5342","NORAD_CAT_ID":"47903","MEAN_MOTION":"15.06398861","REF_FRAME":"TEME","OBJECT_NAME":"STARLINK-2363","RCS_SIZE":"LARGE","CENTER_NAME":"EARTH","OBJECT_ID":"2021-021AV","MEAN_MOTION_DDOT":"0.0000000000000","BSTAR":"0.00039627000000","MEAN_ELEMENT_THEORY":"SGP4","TLE_LINE1":"1 47903U 21021AV  23144.27982820  .00005626  00000-0  39627-3 0  9990","EPOCH":"2023-05-24T06:42:57.156480","REV_AT_EPOCH":"12287","PERIOD":"95.592","LAUNCH_DATE":"2021-03-14","MEAN_MOTION_DOT":"0.00005626","INCLINATION":"53.0528","SITE":"AFETR","COUNTRY_CODE":"US","ELEMENT_SET_NO":"999","CLASSIFICATION_TYPE":"U","PERIAPSIS":"546.329","ECCENTRICITY":"0.00012830","GP_ID":"232449085","TLE_LINE2":"2 47903  53.0528 162.4025 0001283  72.5342 287.5788 15.06398861122877","SEMIMAJOR_AXIS":"6925.352","APOAPSIS":"548.106","OBJECT_TYPE":"PAYLOAD","MEAN_ANOMALY":"287.5788","DECAY_DATE":null,"TIME_SYSTEM":"UTC","EPHEMERIS_TYPE":"0","RA_OF_ASC_NODE":"162.4025"},{"SITE":"AFETR","COUNTRY_CODE":"US","MEAN_ELEMENT_THEORY":"SGP4","BSTAR":"0.00042724000000","TLE_LINE1":"1 47904U 21021AW  23144.34343553  .00006088  00000-0  42724-3 0  9998","EPOCH":"2023-05-24T08:14:32.829792","REV_AT_EPOCH":"12252","PERIOD":"95.592","MEAN_MOTION_DOT":"0.00006088","LAUNCH_DATE":"2021-03-14","INCLINATION":"53.0530","RCS_SIZE":"LARGE","CENTER_NAME":"EARTH","OBJECT_ID":"2021-021AW","MEAN_MOTION_DDOT":"0.0000000000000","FILE":"3916549","ARG_OF_PERICENTER":"70.7185","NORAD_CAT_ID":"47904","MEAN_MOTION":"15.06400240","OBJECT_NAME":"STARLINK-2364","REF_FRAME":"TEME","EPHEMERIS_TYPE":"0","RA_OF_ASC_NODE":"162.1261","MEAN_ANOMALY":"289.3944","OBJECT_TYPE":"PAYLOAD","TIME_SYSTEM":"UTC","DECAY_DATE":null,"SEMIMAJOR_AXIS":"6925.348","APOAPSIS":"548.110","ELEMENT_SET_NO":"999","CLASSIFICATION_TYPE":"U","PERIAPSIS":"546.316","ECCENTRICITY":"0.00012950","GP_ID":"232449336","TLE_LINE2":"2 47904  53.0530 162.1261 0001295  70.7185 289.3944 15.06400240122529"},{"RA_OF_ASC_NODE":"162.4356","EPHEMERIS_TYPE":"0","MEAN_ANOMALY":"289.0309","OBJECT_TYPE":"PAYLOAD","TIME_SYSTEM":"UTC","DECAY_DATE":null,"APOAPSIS":"548.137","SEMIMAJOR_AXIS":"6925.365","PERIAPSIS":"546.323","CLASSIFICATION_TYPE":"U","ELEMENT_SET_NO":"999","GP_ID":"232447591","TLE_LINE2":"2 47905  53.0527 162.4356 0001309  71.0822 289.0309 15.06394644122647","ECCENTRICITY":"0.00013090","SITE":"AFETR","COUNTRY_CODE":"US","EPOCH":"2023-05-24T06:32:20.437728","TLE_LINE1":"1 47905U 21021AX  23144.27245877  .00004966  00000-0  35207-3 0  9992","MEAN_ELEMENT_THEORY":"SGP4","BSTAR":"0.00035207000000","MEAN_MOTION_DOT":"0.00004966","LAUNCH_DATE":"2021-03-14","INCLINATION":"53.0527","PERIOD":"95.592","REV_AT_EPOCH":"12264","OBJECT_ID":"2021-021AX","MEAN_MOTION_DDOT":"0.0000000000000","CENTER_NAME":"EARTH","RCS_SIZE":"LARGE","OBJECT_NAME":"STARLINK-2365","REF_FRAME":"TEME","MEAN_MOTION":"15.06394644","ARG_OF_PERICENTER":"71.0822","NORAD_CAT_ID":"47905","FILE":"3916549"},{"MEAN_ANOMALY":"250.7670","OBJECT_TYPE":"PAYLOAD","TIME_SYSTEM":"UTC","DECAY_DATE":null,"EPHEMERIS_TYPE":"0","RA_OF_ASC_NODE":"189.5054","ELEMENT_SET_NO":"999","PERIAPSIS":"337.027","CLASSIFICATION_TYPE":"U","GP_ID":"232418974","TLE_LINE2":"2 47906  52.9912 189.5054 0001369 109.3497 250.7670 15.77352932126684","ECCENTRICITY":"0.00013690","APOAPSIS":"338.865","SEMIMAJOR_AXIS":"6716.081","MEAN_ELEMENT_THEORY":"SGP4","BSTAR":"0.00044473000000","EPOCH":"2023-05-24T08:08:37.253184","TLE_LINE1":"1 47906U 21021AY  23144.33932006  .00074845  00000-0  44473-3 0  9995","REV_AT_EPOCH":"12668","LAUNCH_DATE":"2021-03-14","INCLINATION":"52.9912","MEAN_MOTION_DOT":"0.00074845","PERIOD":"91.292","SITE":"AFETR","COUNTRY_CODE":"US","NORAD_CAT_ID":"47906","ARG_OF_PERICENTER":"109.3497","FILE":"3916177","REF_FRAME":"TEME","OBJECT_NAME":"STARLINK-2366","MEAN_MOTION":"15.77352932","RCS_SIZE":"LARGE","MEAN_MOTION_DDOT":"0.0000000000000","OBJECT_ID":"2021-021AY","CENTER_NAME":"EARTH"},{"RA_OF_ASC_NODE":"182.1099","EPHEMERIS_TYPE":"0","MEAN_ANOMALY":"263.8951","OBJECT_TYPE":"PAYLOAD","DECAY_DATE":null,"TIME_SYSTEM":"UTC","SEMIMAJOR_AXIS":"6925.393","APOAPSIS":"547.995","CLASSIFICATION_TYPE":"U","PERIAPSIS":"546.521","ELEMENT_SET_NO":"999","ECCENTRICITY":"0.00010640","TLE_LINE2":"2 47907  53.0532 182.1099 0001064  96.2159 263.8951 15.06385584122228","GP_ID":"232448585","SITE":"AFETR","COUNTRY_CODE":"US","TLE_LINE1":"1 47907U 21021AZ  23144.34896501  .00001593  00000-0  12584-3 0  9994","EPOCH":"2023-05-24T08:22:30.576864","MEAN_ELEMENT_THEORY":"SGP4","BSTAR":"0.00012584000000","PERIOD":"95.593","LAUNCH_DATE":"2021-03-14","MEAN_MOTION_DOT":"0.00001593","INCLINATION":"53.0532","REV_AT_EPOCH":"12222","CENTER_NAME":"EARTH","MEAN_MOTION_DDOT":"0.0000000000000","OBJECT_ID":"2021-021AZ","RCS_SIZE":"LARGE","MEAN_MOTION":"15.06385584","REF_FRAME":"TEME","OBJECT_NAME":"STARLINK-2367","FILE":"3916549","ARG_OF_PERICENTER":"96.2159","NORAD_CAT_ID":"47907"},{"PERIOD":"95.593","MEAN_MOTION_DOT":"0.00001320","LAUNCH_DATE":"2021-03-14","INCLINATION":"53.0522","REV_AT_EPOCH":"12179","TLE_LINE1":"1 47908U 21021BA  23144.35633638  .00001320  00000-0  10754-3 0  9991","EPOCH":"2023-05-24T08:33:07.463232","BSTAR":"0.00010754000000","MEAN_ELEMENT_THEORY":"SGP4","COUNTRY_CODE":"US","SITE":"AFETR","MEAN_MOTION":"15.06386119","OBJECT_NAME":"STARLINK-2368","REF_FRAME":"TEME","FILE":"3916174","ARG_OF_PERICENTER":"90.3944","NORAD_CAT_ID":"47908","CENTER_NAME":"EARTH","MEAN_MOTION_DDOT":"0.0000000000000","OBJECT_ID":"2021-021BA","RCS_SIZE":"LARGE","DECAY_DATE":null,"TIME_SYSTEM":"UTC","OBJECT_TYPE":"PAYLOAD","MEAN_ANOMALY":"269.7161","RA_OF_ASC_NODE":"182.0728","EPHEMERIS_TYPE":"0","ECCENTRICITY":"0.00010150","TLE_LINE2":"2 47908  53.0522 182.0728 0001015  90.3944 269.7161 15.06386119121793","GP_ID":"232418423","CLASSIFICATION_TYPE":"U","PERIAPSIS":"546.553","ELEMENT_SET_NO":"999","SEMIMAJOR_AXIS":"6925.391","APOAPSIS":"547.959"}];
